{"type": "FeatureCollection", "features": [{"type": "Feature", "id": 1, "geometry": {"type": "Point", "coordinates": [98.0760901163712, 3.5547315500000423]}, "properties": {"id": 1, "kode": "KAM", "nama": "Keuskupan Agung Medan", "nama_pendek": "KA Medan", "jenis": "KA", "provinsi_gerejawi": "Medan", "uskup": "Mgr. Kornelius Sipayung, OFM.Cap", "katedral": "Katedral St. Petrus Medan", "jml_paroki": 70, "umat_katolik_est": 520000, "color": "#dc2626", "sumber_populasi": "Kemenag Bimas Katolik 2025 (estimasi per keuskupan dari data provinsi)", "sumber_batas": "GeoBoundaries IDN ADM2 via geoboundaries.org (CC BY 4.0)", "catatan": "Batas keuskupan ≈ agregasi kabupaten/kota; beberapa batas tidak persis mengikuti batas administrasi sipil", "wilayah_admin": "Sumatera Utara, Aceh, Riau, Kepri", "umat_data": "Sumut: est. >400.000 (data Kemendagri)", "paroki_data": null, "stasi_data": null, "catatan_strategis": "Katedral: Santa Maria. Komunitas Katolik besar di perantauan Batak."}}, {"type": "Feature", "id": 2, "geometry": {"type": "Point", "coordinates": [99.49738278575978, 1.620589400000057]}, "properties": {"id": 2, "kode": "KSib", "nama": "Keuskupan Sibolga", "nama_pendek": "Sibolga", "jenis": "K", "provinsi_gerejawi": null, "uskup": "Mgr. Fransiskus Tuaman Sasfo Sinaga", "katedral": "Katedral Sibolga", "jml_paroki": null, "umat_katolik_est": 160000, "color": "#2563eb", "sumber_populasi": "Kemenag Bimas Katolik 2025 (estimasi per keuskupan dari data provinsi)", "sumber_batas": "GeoBoundaries IDN ADM2 via geoboundaries.org (CC BY 4.0)", "catatan": "Batas keuskupan ≈ agregasi kabupaten/kota; beberapa batas tidak persis mengikuti batas administrasi sipil", "wilayah_admin": "Tapanuli, Nias, Mentawai", "umat_data": "→ lihat Sumut", "paroki_data": null, "stasi_data": null, "catatan_strategis": "Wilayah kepulauan; tantangan mobilitas pastoral."}}, {"type": "Feature", "id": 3, "geometry": {"type": "Point", "coordinates": [101.61561376554867, -0.1134219999999575]}, "properties": {"id": 3, "kode": "KPdg", "nama": "Keuskupan Padang", "nama_pendek": "Padang", "jenis": "K", "provinsi_gerejawi": null, "uskup": "Mgr. Vitus Rubianto Solichin, SX", "katedral": "Katedral St. Theresia Padang", "jml_paroki": null, "umat_katolik_est": 175000, "color": "#2563eb", "sumber_populasi": "Kemenag Bimas Katolik 2025 (estimasi per keuskupan dari data provinsi)", "sumber_batas": "GeoBoundaries IDN ADM2 via geoboundaries.org (CC BY 4.0)", "catatan": "Batas keuskupan ≈ agregasi kabupaten/kota; beberapa batas tidak persis mengikuti batas administrasi sipil", "wilayah_admin": "Sumatera Barat, Riau, Jambi", "umat_data": null, "paroki_data": null, "stasi_data": null, "catatan_strategis": "Minoritas Katolik di daerah mayoritas Muslim kuat."}}, {"type": "Feature", "id": 4, "geometry": {"type": "Point", "coordinates": [124.2126361662707, -9.857449049999929]}, "properties": {"id": 4, "kode": "KAKpg", "nama": "Keuskupan Agung Kupang", "nama_pendek": "KA Kupang", "jenis": "KA", "provinsi_gerejawi": "Kupang", "uskup": "Mgr. Petrus Turang", "katedral": "Katedral Kupang", "jml_paroki": 35, "umat_katolik_est": 196000, "color": "#dc2626", "sumber_populasi": "Kemenag Bimas Katolik 2025 (estimasi per keuskupan dari data provinsi)", "sumber_batas": "GeoBoundaries IDN ADM2 via geoboundaries.org (CC BY 4.0)", "catatan": "Batas keuskupan ≈ agregasi kabupaten/kota; beberapa batas tidak persis mengikuti batas administrasi sipil", "wilayah_admin": "Timor Barat (Kupang, TTS, TTU sebagian), pulau-pulau NTT timur", "umat_data": "→ lihat NTT: 3.053.189 total", "paroki_data": "342 (Nusa Tenggara Timur, Data provinsi NTT (8 keuskupan))", "stasi_data": "2665 (Nusa Tenggara Timur, Data provinsi NTT (8 keuskupan))", "catatan_strategis": "PSN: Pelabuhan Kupang (P2), Bendungan Manikin (P7), Bendungan Temef (P6). Yonif 743 Kupang."}}, {"type": "Feature", "id": 5, "geometry": {"type": "Point", "coordinates": [138.6204296595967, -5.58506799999995]}, "properties": {"id": 5, "kode": "KAgt", "nama": "Keuskupan Agats", "nama_pendek": "Agats", "jenis": "K", "provinsi_gerejawi": null, "uskup": "Mgr. Aloysius Murwito, OFM", "katedral": "Katedral Agats", "jml_paroki": null, "umat_katolik_est": 80000, "color": "#2563eb", "sumber_populasi": "Kemenag Bimas Katolik 2025 (estimasi per keuskupan dari data provinsi)", "sumber_batas": "GeoBoundaries IDN ADM2 via geoboundaries.org (CC BY 4.0)", "catatan": "Batas keuskupan ≈ agregasi kabupaten/kota; beberapa batas tidak persis mengikuti batas administrasi sipil", "wilayah_admin": "Asmat (Papua Selatan)", "umat_data": "→ lihat Papua Selatan: 271.939 total", "paroki_data": null, "stasi_data": null, "catatan_strategis": "Pelayanan komunitas Asmat — suku dengan tradisi ukir dunia. Aksesibilitas sangat terbatas."}}, {"type": "Feature", "id": 6, "geometry": {"type": "Point", "coordinates": [117.27161335914843, -8.594855349999964]}, "properties": {"id": 6, "kode": "KDps", "nama": "Keuskupan Denpasar", "nama_pendek": "Denpasar", "jenis": "K", "provinsi_gerejawi": null, "uskup": "Mgr. Silvester San, Pr", "katedral": "Katedral Denpasar", "jml_paroki": null, "umat_katolik_est": 47000, "color": "#2563eb", "sumber_populasi": "Kemenag Bimas Katolik 2025 (estimasi per keuskupan dari data provinsi)", "sumber_batas": "GeoBoundaries IDN ADM2 via geoboundaries.org (CC BY 4.0)", "catatan": "Batas keuskupan ≈ agregasi kabupaten/kota; beberapa batas tidak persis mengikuti batas administrasi sipil", "wilayah_admin": "Bali, Lombok (NTB)", "umat_data": "Bali: 36.959 | NTB: 10.334", "paroki_data": "14 (Bali)", "stasi_data": "23 (Bali)", "catatan_strategis": "Minoritas Katolik di tengah mayoritas Hindu (Bali) dan Islam (NTB)."}}, {"type": "Feature", "id": 7, "geometry": {"type": "Point", "coordinates": [115.51592326628219, -2.7501935499999774]}, "properties": {"id": 7, "kode": "KBjm", "nama": "Keuskupan Banjarmasin", "nama_pendek": "Banjarmasin", "jenis": "K", "provinsi_gerejawi": null, "uskup": "Mgr. Petrus Boddeng Timang", "katedral": "Katedral Banjarmasin", "jml_paroki": null, "umat_katolik_est": 24000, "color": "#2563eb", "sumber_populasi": "Kemenag Bimas Katolik 2025 (estimasi per keuskupan dari data provinsi)", "sumber_batas": "GeoBoundaries IDN ADM2 via geoboundaries.org (CC BY 4.0)", "catatan": "Batas keuskupan ≈ agregasi kabupaten/kota; beberapa batas tidak persis mengikuti batas administrasi sipil", "wilayah_admin": "Kalimantan Selatan", "umat_data": "Kalsel: 23.970 (Bimas Katolik 2025)", "paroki_data": "10 (Kalsel)", "stasi_data": "50 (Kalsel)", "catatan_strategis": "Minoritas Katolik di wilayah mayoritas Muslim."}}, {"type": "Feature", "id": 8, "geometry": {"type": "Point", "coordinates": [108.06060015048348, -6.880891599999956]}, "properties": {"id": 8, "kode": "KBdg", "nama": "Keuskupan Bandung", "nama_pendek": "Bandung", "jenis": "K", "provinsi_gerejawi": null, "uskup": "Mgr. Antonius Subianto Bunjamin, OSC", "katedral": "Katedral St. Petrus Bandung", "jml_paroki": null, "umat_katolik_est": 200000, "color": "#2563eb", "sumber_populasi": "Kemenag Bimas Katolik 2025 (estimasi per keuskupan dari data provinsi)", "sumber_batas": "GeoBoundaries IDN ADM2 via geoboundaries.org (CC BY 4.0)", "catatan": "Batas keuskupan ≈ agregasi kabupaten/kota; beberapa batas tidak persis mengikuti batas administrasi sipil", "wilayah_admin": "Jawa Barat bagian selatan & tengah", "umat_data": "→ lihat Jawa Barat: 306.322 total", "paroki_data": "48 (Jawa Barat, Data provinsi Jawa Barat (3 keuskupan))", "stasi_data": "48 (Jawa Barat, Data provinsi Jawa Barat (3 keuskupan))", "catatan_strategis": "Katedral: Hati Tak Bernoda Santa Perawan Maria."}}, {"type": "Feature", "id": 9, "geometry": {"type": "Point", "coordinates": [123.18749346789406, -0.764076599999953]}, "properties": {"id": 9, "kode": "KMnd", "nama": "Keuskupan Manado", "nama_pendek": "Manado", "jenis": "K", "provinsi_gerejawi": null, "uskup": "Mgr. Benedictus Estephanus Rolly Untu, MSC", "katedral": "Katedral Manado", "jml_paroki": null, "umat_katolik_est": 148000, "color": "#2563eb", "sumber_populasi": "Kemenag Bimas Katolik 2025 (estimasi per keuskupan dari data provinsi)", "sumber_batas": "GeoBoundaries IDN ADM2 via geoboundaries.org (CC BY 4.0)", "catatan": "Batas keuskupan ≈ agregasi kabupaten/kota; beberapa batas tidak persis mengikuti batas administrasi sipil", "wilayah_admin": "Sulawesi Utara, Gorontalo, Sulawesi Tengah", "umat_data": "Sulut: 117.784 | Sulteng: 29.364 (Bimas Katolik 2025)", "paroki_data": "50 (Sulut)", "stasi_data": "212 (Sulut)", "catatan_strategis": "PSN Sulut: Nikel Weda Bay & kawasan industri. Gorontalo: minoritas kecil (1.173 jiwa)."}}, {"type": "Feature", "id": 10, "geometry": {"type": "Point", "coordinates": [107.90514977012242, -2.8992406999999503]}, "properties": {"id": 10, "kode": "KPkp", "nama": "Keuskupan Pangkalpinang", "nama_pendek": "Pangkalpinang", "jenis": "K", "provinsi_gerejawi": null, "uskup": "Mgr. Adrianus Sunarko, OFM", "katedral": "Katedral Pangkalpinang", "jml_paroki": null, "umat_katolik_est": 77000, "color": "#2563eb", "sumber_populasi": "Kemenag Bimas Katolik 2025 (estimasi per keuskupan dari data provinsi)", "sumber_batas": "GeoBoundaries IDN ADM2 via geoboundaries.org (CC BY 4.0)", "catatan": "Batas keuskupan ≈ agregasi kabupaten/kota; beberapa batas tidak persis mengikuti batas administrasi sipil", "wilayah_admin": "Kepulauan Bangka Belitung", "umat_data": null, "paroki_data": null, "stasi_data": null, "catatan_strategis": "PSN: tambang timah Bangka Belitung."}}, {"type": "Feature", "id": 11, "geometry": {"type": "Point", "coordinates": [113.28474376846349, -7.058586149999979]}, "properties": {"id": 11, "kode": "KSby", "nama": "Keuskupan Surabaya", "nama_pendek": "Surabaya", "jenis": "K", "provinsi_gerejawi": null, "uskup": "Sede Vacante (Lowong)", "katedral": "Katedral Kelahiran Santa Perawan Maria Surabaya", "jml_paroki": null, "umat_katolik_est": 135000, "color": "#2563eb", "sumber_populasi": "Kemenag Bimas Katolik 2025 (estimasi per keuskupan dari data provinsi)", "sumber_batas": "GeoBoundaries IDN ADM2 via geoboundaries.org (CC BY 4.0)", "catatan": "Batas keuskupan ≈ agregasi kabupaten/kota; beberapa batas tidak persis mengikuti batas administrasi sipil", "wilayah_admin": "Jawa Timur bagian utara & timur", "umat_data": "→ lihat Jawa Timur: 273.708 total", "paroki_data": "69 (Jatim)", "stasi_data": "237 (Jatim)", "catatan_strategis": "Lowong. Katedral: Hati Kudus Yesus."}}, {"type": "Feature", "id": 12, "geometry": {"type": "Point", "coordinates": [109.28679988986926, -7.327811249999968]}, "properties": {"id": 12, "kode": "KPwt", "nama": "Keuskupan Purwokerto", "nama_pendek": "Purwokerto", "jenis": "K", "provinsi_gerejawi": null, "uskup": "Mgr. Christophorus Tri Harsono", "katedral": "Katedral Purwokerto", "jml_paroki": null, "umat_katolik_est": 80000, "color": "#2563eb", "sumber_populasi": "Kemenag Bimas Katolik 2025 (estimasi per keuskupan dari data provinsi)", "sumber_batas": "GeoBoundaries IDN ADM2 via geoboundaries.org (CC BY 4.0)", "catatan": "Batas keuskupan ≈ agregasi kabupaten/kota; beberapa batas tidak persis mengikuti batas administrasi sipil", "wilayah_admin": "Jawa Tengah bagian barat & selatan", "umat_data": "→ lihat Jawa Tengah: 342.347 total", "paroki_data": "91 (Jawa Tengah, Data provinsi Jawa Tengah (2 keuskupan))", "stasi_data": "400 (Jawa Tengah, Data provinsi Jawa Tengah (2 keuskupan))", "catatan_strategis": null}}, {"type": "Feature", "id": 13, "geometry": {"type": "Point", "coordinates": [119.62912636843309, -3.2746120499999742]}, "properties": {"id": 13, "kode": "KAMks", "nama": "Keuskupan Agung Makassar", "nama_pendek": "KA Makassar", "jenis": "KA", "provinsi_gerejawi": "Makassar", "uskup": "Mgr. Johannes Liku Ada'", "katedral": "Katedral Makassar", "jml_paroki": 49, "umat_katolik_est": 185000, "color": "#dc2626", "sumber_populasi": "Kemenag Bimas Katolik 2025 (estimasi per keuskupan dari data provinsi)", "sumber_batas": "GeoBoundaries IDN ADM2 via geoboundaries.org (CC BY 4.0)", "catatan": "Batas keuskupan ≈ agregasi kabupaten/kota; beberapa batas tidak persis mengikuti batas administrasi sipil", "wilayah_admin": "Sulawesi Selatan", "umat_data": "Sulsel: 150.891 (Bimas Katolik 2025)", "paroki_data": "33 (Sulsel)", "stasi_data": "390 (Sulsel)", "catatan_strategis": "Katedral: Hati Kudus Yesus. PSN Sulsel: Bendungan Jenelata."}}, {"type": "Feature", "id": 14, "geometry": {"type": "Point", "coordinates": [110.56915470977583, -7.306806299999948]}, "properties": {"id": 14, "kode": "KASem", "nama": "Keuskupan Agung Semarang", "nama_pendek": "KA Semarang", "jenis": "KA", "provinsi_gerejawi": "Semarang", "uskup": "Mgr. Robertus Rubiyatmoko", "katedral": "Katedral Randusari Semarang", "jml_paroki": null, "umat_katolik_est": 510000, "color": "#dc2626", "sumber_populasi": "Kemenag Bimas Katolik 2025 (estimasi per keuskupan dari data provinsi)", "sumber_batas": "GeoBoundaries IDN ADM2 via geoboundaries.org (CC BY 4.0)", "catatan": "Batas keuskupan ≈ agregasi kabupaten/kota; beberapa batas tidak persis mengikuti batas administrasi sipil", "wilayah_admin": "Jawa Tengah & DIY", "umat_data": "Jateng: 342.347 | DIY: 164.685 (Bimas Katolik 2025)", "paroki_data": "91 (Jateng)", "stasi_data": "400 (Jateng)", "catatan_strategis": "Katedral: Santo Petrus & Paulus. Wilayah demo BEM SI Jateng (Reformasi Jilid 2, Jun 2026)."}}, {"type": "Feature", "id": 15, "geometry": {"type": "Point", "coordinates": [103.8612737713708, -3.274693699999964]}, "properties": {"id": 15, "kode": "KAPal", "nama": "Keuskupan Agung Palembang", "nama_pendek": "KA Palembang", "jenis": "KA", "provinsi_gerejawi": "Palembang", "uskup": "Mgr. Yohanes Harun Yuwono", "katedral": "Katedral St. Yosef Palembang", "jml_paroki": 29, "umat_katolik_est": 81000, "color": "#dc2626", "sumber_populasi": "Kemenag Bimas Katolik 2025 (estimasi per keuskupan dari data provinsi)", "sumber_batas": "GeoBoundaries IDN ADM2 via geoboundaries.org (CC BY 4.0)", "catatan": "Batas keuskupan ≈ agregasi kabupaten/kota; beberapa batas tidak persis mengikuti batas administrasi sipil", "wilayah_admin": "Sumatera Selatan, Bengkulu", "umat_data": "Sumsel: 51.024 (Bimas Katolik 2025)", "paroki_data": "21 (Sumsel)", "stasi_data": "174 (Sumsel)", "catatan_strategis": "PSN Sumsel: 5 ruas Tol Trans-Sumatera, LRT, RDMP Kilang RU III, Bendungan Tiga Dihaji. 10 Yonif TP + 1 Yonif Raider."}}, {"type": "Feature", "id": 16, "geometry": {"type": "Point", "coordinates": [112.98220226147122, -8.061320749999936]}, "properties": {"id": 16, "kode": "KMlg", "nama": "Keuskupan Malang", "nama_pendek": "Malang", "jenis": "K", "provinsi_gerejawi": null, "uskup": "Mgr. Henricus Pidyarto Gunawan, O.Carm", "katedral": "Katedral St. Yosef Malang", "jml_paroki": null, "umat_katolik_est": 140000, "color": "#2563eb", "sumber_populasi": "Kemenag Bimas Katolik 2025 (estimasi per keuskupan dari data provinsi)", "sumber_batas": "GeoBoundaries IDN ADM2 via geoboundaries.org (CC BY 4.0)", "catatan": "Batas keuskupan ≈ agregasi kabupaten/kota; beberapa batas tidak persis mengikuti batas administrasi sipil", "wilayah_admin": "Jawa Timur bagian selatan", "umat_data": "→ lihat Jawa Timur: 273.708 total", "paroki_data": "69 (Jawa Timur, Data provinsi Jawa Timur (2 keuskupan))", "stasi_data": "237 (Jawa Timur, Data provinsi Jawa Timur (2 keuskupan))", "catatan_strategis": "Katedral: Santo Yusup."}}, {"type": "Feature", "id": 17, "geometry": {"type": "Point", "coordinates": [113.43969031387996, -1.3819422499999519]}, "properties": {"id": 17, "kode": "KPkr", "nama": "Keuskupan Palangka Raya", "nama_pendek": "Palangka Raya", "jenis": "K", "provinsi_gerejawi": null, "uskup": "Mgr. Aloysius Maryadi Sutrisnaatmaka, MSF", "katedral": "Katedral Palangka Raya", "jml_paroki": null, "umat_katolik_est": 94000, "color": "#2563eb", "sumber_populasi": "Kemenag Bimas Katolik 2025 (estimasi per keuskupan dari data provinsi)", "sumber_batas": "GeoBoundaries IDN ADM2 via geoboundaries.org (CC BY 4.0)", "catatan": "Batas keuskupan ≈ agregasi kabupaten/kota; beberapa batas tidak persis mengikuti batas administrasi sipil", "wilayah_admin": "Kalimantan Tengah", "umat_data": "Kalteng: 94.305 (Bimas Katolik 2025)", "paroki_data": "21 (Kalteng)", "stasi_data": "167 (Kalteng)", "catatan_strategis": "PSN Kalteng: Tol, sawit. Food Estate Kalteng."}}, {"type": "Feature", "id": 18, "geometry": {"type": "Point", "coordinates": [106.83495770127547, -6.198208349999981]}, "properties": {"id": 18, "kode": "KAJ", "nama": "Keuskupan Agung Jakarta", "nama_pendek": "KA Jakarta", "jenis": "KA", "provinsi_gerejawi": "Jakarta", "uskup": "Ignatius Kardinal Suharyo Hardjoatmodjo", "katedral": "Katedral Jakarta", "jml_paroki": null, "umat_katolik_est": 580000, "color": "#dc2626", "sumber_populasi": "Kemenag Bimas Katolik 2025 (estimasi per keuskupan dari data provinsi)", "sumber_batas": "GeoBoundaries IDN ADM2 via geoboundaries.org (CC BY 4.0)", "catatan": "Batas keuskupan ≈ agregasi kabupaten/kota; beberapa batas tidak persis mengikuti batas administrasi sipil", "wilayah_admin": "DKI Jakarta, sebagian Banten, sebagian Jawa Barat", "umat_data": "DKI Jakarta: 434.395 | Banten: 154.538 (Bimas Katolik 2025)", "paroki_data": "45 (DKI)", "stasi_data": "8 (DKI)", "catatan_strategis": "Katedral: Santa Perawan Maria Diangkat ke Surga. Kardinal pertama Indonesia sejak 2019. Pusat KWI."}}, {"type": "Feature", "id": 19, "geometry": {"type": "Point", "coordinates": [124.72188720620058, -9.373995349999944]}, "properties": {"id": 19, "kode": "KAtb", "nama": "Keuskupan Atambua", "nama_pendek": "Atambua", "jenis": "K", "provinsi_gerejawi": null, "uskup": "Mgr. Dominikus Saku", "katedral": "Katedral Atambua", "jml_paroki": null, "umat_katolik_est": 280000, "color": "#2563eb", "sumber_populasi": "Kemenag Bimas Katolik 2025 (estimasi per keuskupan dari data provinsi)", "sumber_batas": "GeoBoundaries IDN ADM2 via geoboundaries.org (CC BY 4.0)", "catatan": "Batas keuskupan ≈ agregasi kabupaten/kota; beberapa batas tidak persis mengikuti batas administrasi sipil", "wilayah_admin": "Belu, Malaka, TTU", "umat_data": "→ lihat NTT: 3.053.189 total", "paroki_data": "342 (Nusa Tenggara Timur, Data provinsi NTT (8 keuskupan))", "stasi_data": "2665 (Nusa Tenggara Timur, Data provinsi NTT (8 keuskupan))", "catatan_strategis": "Perbatasan RI-Timor Leste. PSN: Bendungan Napun Gete (P5). Yonif 744 Atambua. Yonif TP 877 Bikomi Selatan (TTU)."}}, {"type": "Feature", "id": 20, "geometry": {"type": "Point", "coordinates": [109.57800383406938, 0.5955576500000466]}, "properties": {"id": 20, "kode": "KAPtk", "nama": "Keuskupan Agung Pontianak", "nama_pendek": "KA Pontianak", "jenis": "KA", "provinsi_gerejawi": "Pontianak", "uskup": "Sede Vacante (Lowong)", "katedral": "Katedral St. Yosef Pontianak", "jml_paroki": 29, "umat_katolik_est": 430000, "color": "#dc2626", "sumber_populasi": "Kemenag Bimas Katolik 2025 (estimasi per keuskupan dari data provinsi)", "sumber_batas": "GeoBoundaries IDN ADM2 via geoboundaries.org (CC BY 4.0)", "catatan": "Batas keuskupan ≈ agregasi kabupaten/kota; beberapa batas tidak persis mengikuti batas administrasi sipil", "wilayah_admin": "Kalimantan Barat bagian barat", "umat_data": "Kalbar: 1.236.714 (terbesar Kalimantan; Bimas Katolik 2025)", "paroki_data": "104 (Kalbar)", "stasi_data": "2.621 (Kalbar)", "catatan_strategis": "Lowong. Populasi Katolik besar komunitas Dayak & Tionghoa. PSN Kalbar: Kebun Kayu Mayawana Persada."}}, {"type": "Feature", "id": 21, "geometry": {"type": "Point", "coordinates": [116.44587977374925, 2.707459450000073]}, "properties": {"id": 21, "kode": "KTjs", "nama": "Keuskupan Tanjung Selor", "nama_pendek": "Tanjung Selor", "jenis": "K", "provinsi_gerejawi": null, "uskup": "Mgr. Paulinus Yan Olla, MSF", "katedral": "Katedral Tanjung Selor", "jml_paroki": null, "umat_katolik_est": 55000, "color": "#2563eb", "sumber_populasi": "Kemenag Bimas Katolik 2025 (estimasi per keuskupan dari data provinsi)", "sumber_batas": "GeoBoundaries IDN ADM2 via geoboundaries.org (CC BY 4.0)", "catatan": "Batas keuskupan ≈ agregasi kabupaten/kota; beberapa batas tidak persis mengikuti batas administrasi sipil", "wilayah_admin": "Kalimantan Utara", "umat_data": "Kaltara: 50.666 (Bimas Katolik 2025)", "paroki_data": "11 (Kaltara)", "stasi_data": "120 (Kaltara)", "catatan_strategis": "Dipisahkan dari Kalimantan & Samarinda 2002. Perbatasan Malaysia."}}, {"type": "Feature", "id": 22, "geometry": {"type": "Point", "coordinates": [139.50863999624082, -3.367856149999966]}, "properties": {"id": 22, "kode": "KJyp", "nama": "Keuskupan Jayapura", "nama_pendek": "Jayapura", "jenis": "K", "provinsi_gerejawi": null, "uskup": "Mgr. Yanuarius Theofilus Matopai You", "katedral": "Katedral Jayapura", "jml_paroki": null, "umat_katolik_est": 170000, "color": "#2563eb", "sumber_populasi": "Kemenag Bimas Katolik 2025 (estimasi per keuskupan dari data provinsi)", "sumber_batas": "GeoBoundaries IDN ADM2 via geoboundaries.org (CC BY 4.0)", "catatan": "Batas keuskupan ≈ agregasi kabupaten/kota; beberapa batas tidak persis mengikuti batas administrasi sipil", "wilayah_admin": "Papua (provinsi), Papua Pegunungan", "umat_data": "Papua: 62.869 | Papua Pegunungan: 109.834 (Bimas Katolik 2025)", "paroki_data": "99 (Papua)", "stasi_data": "697 (Papua)", "catatan_strategis": "75 tahun. Wilayah terluas secara geografis. Tantangan: konflik bersenjata Papua, akses terbatas."}}, {"type": "Feature", "id": 23, "geometry": {"type": "Point", "coordinates": [106.40241890579676, -6.692117399999944]}, "properties": {"id": 23, "kode": "KBgr", "nama": "Keuskupan Bogor", "nama_pendek": "Bogor", "jenis": "K", "provinsi_gerejawi": null, "uskup": "Sede Vacante (Lowong)", "katedral": "Katedral St. Perawan Maria Bogor", "jml_paroki": null, "umat_katolik_est": 230000, "color": "#2563eb", "sumber_populasi": "Kemenag Bimas Katolik 2025 (estimasi per keuskupan dari data provinsi)", "sumber_batas": "GeoBoundaries IDN ADM2 via geoboundaries.org (CC BY 4.0)", "catatan": "Batas keuskupan ≈ agregasi kabupaten/kota; beberapa batas tidak persis mengikuti batas administrasi sipil", "wilayah_admin": "Sebagian Jawa Barat (Bogor, Sukabumi, Cianjur, Depok, Bekasi)", "umat_data": "→ lihat Jawa Barat: 306.322 total", "paroki_data": "48 (Jawa Barat, Data provinsi Jawa Barat (3 keuskupan))", "stasi_data": "48 (Jawa Barat, Data provinsi Jawa Barat (3 keuskupan))", "catatan_strategis": "Lowong sejak — . Termasuk wilayah pertumbuhan Jabodetabek."}}, {"type": "Feature", "id": 24, "geometry": {"type": "Point", "coordinates": [139.86202778139892, -7.073616249999979]}, "properties": {"id": 24, "kode": "KAMrk", "nama": "Keuskupan Agung Merauke", "nama_pendek": "KA Merauke", "jenis": "KA", "provinsi_gerejawi": "Merauke", "uskup": "Mgr. Petrus Canisius Mandagi, MSC", "katedral": "Katedral Merauke", "jml_paroki": 37, "umat_katolik_est": 220000, "color": "#dc2626", "sumber_populasi": "Kemenag Bimas Katolik 2025 (estimasi per keuskupan dari data provinsi)", "sumber_batas": "GeoBoundaries IDN ADM2 via geoboundaries.org (CC BY 4.0)", "catatan": "Batas keuskupan ≈ agregasi kabupaten/kota; beberapa batas tidak persis mengikuti batas administrasi sipil", "wilayah_admin": "Papua Selatan", "umat_data": "Papua Selatan: 271.939 (Bimas Katolik 2025)", "paroki_data": null, "stasi_data": null, "catatan_strategis": "PSN KRITIKAL: Food Estate Merauke (cetak sawah masif). Konsesi sawit besar. Ancaman penggusuran komunitas adat Malind."}}, {"type": "Feature", "id": 25, "geometry": {"type": "Point", "coordinates": [126.65548044272128, -3.4592280499999504]}, "properties": {"id": 25, "kode": "KAmb", "nama": "Keuskupan Amboina", "nama_pendek": "Amboina", "jenis": "K", "provinsi_gerejawi": null, "uskup": "Mgr. Seno Ngutra", "katedral": "Katedral Ambon", "jml_paroki": null, "umat_katolik_est": 140000, "color": "#2563eb", "sumber_populasi": "Kemenag Bimas Katolik 2025 (estimasi per keuskupan dari data provinsi)", "sumber_batas": "GeoBoundaries IDN ADM2 via geoboundaries.org (CC BY 4.0)", "catatan": "Batas keuskupan ≈ agregasi kabupaten/kota; beberapa batas tidak persis mengikuti batas administrasi sipil", "wilayah_admin": "Maluku (Ambon, Maluku Tengah, Maluku Tenggara, MBD, SBB, Aru, Buru)", "umat_data": "Maluku: 131.613 (Bimas Katolik 2025)", "paroki_data": "33 (Maluku)", "stasi_data": "208 (Maluku)", "catatan_strategis": "122 tahun. Wilayah konflik Maluku 1999–2002 menjadi bagian sejarah pastoral."}}, {"type": "Feature", "id": 26, "geometry": {"type": "Point", "coordinates": [136.75583564926902, -3.7930045499999494]}, "properties": {"id": 26, "kode": "KTmk", "nama": "Keuskupan Timika", "nama_pendek": "Timika", "jenis": "K", "provinsi_gerejawi": null, "uskup": "Mgr. Bernardus Bofitwos Baru, OSA", "katedral": "Katedral Timika", "jml_paroki": null, "umat_katolik_est": 265000, "color": "#2563eb", "sumber_populasi": "Kemenag Bimas Katolik 2025 (estimasi per keuskupan dari data provinsi)", "sumber_batas": "GeoBoundaries IDN ADM2 via geoboundaries.org (CC BY 4.0)", "catatan": "Batas keuskupan ≈ agregasi kabupaten/kota; beberapa batas tidak persis mengikuti batas administrasi sipil", "wilayah_admin": "Papua Tengah", "umat_data": "Papua Tengah: 263.974 (Bimas Katolik 2025)", "paroki_data": null, "stasi_data": null, "catatan_strategis": "Dipisahkan dari Jayapura 2003. Wilayah tambang PT Freeport Indonesia."}}, {"type": "Feature", "id": 27, "geometry": {"type": "Point", "coordinates": [121.42463167236053, -8.64873684999997]}, "properties": {"id": 27, "kode": "KAEnd", "nama": "Keuskupan Agung Ende", "nama_pendek": "KA Ende", "jenis": "KA", "provinsi_gerejawi": "Ende", "uskup": "Mgr. Vincentius Sensi Potokota", "katedral": "Katedral Ende", "jml_paroki": 72, "umat_katolik_est": 480000, "color": "#dc2626", "sumber_populasi": "Kemenag Bimas Katolik 2025 (estimasi per keuskupan dari data provinsi)", "sumber_batas": "GeoBoundaries IDN ADM2 via geoboundaries.org (CC BY 4.0)", "catatan": "Batas keuskupan ≈ agregasi kabupaten/kota; beberapa batas tidak persis mengikuti batas administrasi sipil", "wilayah_admin": "Flores Tengah, Flores Barat (Nagekeo, Ende, Ngada, Manggarai)", "umat_data": "NTT: 3.053.189 (terbesar; Bimas Katolik 2025)", "paroki_data": "342 (Nusa Tenggara Timur, Data provinsi NTT (8 keuskupan))", "stasi_data": "2665 (Nusa Tenggara Timur, Data provinsi NTT (8 keuskupan))", "catatan_strategis": "Katedral: Sta. Maria Ratu Rosario. NTT adalah provinsi dengan populasi Katolik terbesar Indonesia. PSN: Bendungan Mbay (P4)."}}, {"type": "Feature", "id": 28, "geometry": {"type": "Point", "coordinates": [130.0669341101526, -1.8668425000000002]}, "properties": {"id": 28, "kode": "KMS", "nama": "Keuskupan Manokwari-Sorong", "nama_pendek": "Manokwari-Sorong", "jenis": "K", "provinsi_gerejawi": null, "uskup": "Mgr. Hilarion Datus Lega", "katedral": "Katedral Manokwari", "jml_paroki": null, "umat_katolik_est": 92000, "color": "#2563eb", "sumber_populasi": "Kemenag Bimas Katolik 2025 (estimasi per keuskupan dari data provinsi)", "sumber_batas": "GeoBoundaries IDN ADM2 via geoboundaries.org (CC BY 4.0)", "catatan": "Batas keuskupan ≈ agregasi kabupaten/kota; beberapa batas tidak persis mengikuti batas administrasi sipil", "wilayah_admin": "Papua Barat & Papua Barat Daya", "umat_data": "Papua Barat: 48.488 | Papua Barat Daya: 43.797 (Bimas Katolik 2025)", "paroki_data": "25 (Papbar)", "stasi_data": "149 (Papbar)", "catatan_strategis": "PSN KRITIKAL: 5 izin tambang nikel baru (38.529 ha), 22.452 ha hutan alam. Raja Ampat / Geopark UNESCO terancam."}}, {"type": "Feature", "id": 29, "geometry": {"type": "Point", "coordinates": [123.54391430036347, -8.377221599999956]}, "properties": {"id": 29, "kode": "KLrt", "nama": "Keuskupan Larantuka", "nama_pendek": "Larantuka", "jenis": "K", "provinsi_gerejawi": null, "uskup": "Mgr. Fransiskus Kopong Kung", "katedral": "Katedral Larantuka", "jml_paroki": null, "umat_katolik_est": 330000, "color": "#2563eb", "sumber_populasi": "Kemenag Bimas Katolik 2025 (estimasi per keuskupan dari data provinsi)", "sumber_batas": "GeoBoundaries IDN ADM2 via geoboundaries.org (CC BY 4.0)", "catatan": "Batas keuskupan ≈ agregasi kabupaten/kota; beberapa batas tidak persis mengikuti batas administrasi sipil", "wilayah_admin": "Flores Timur, Lembata", "umat_data": "→ lihat NTT: 3.053.189 total", "paroki_data": "342 (Nusa Tenggara Timur, Data provinsi NTT (8 keuskupan))", "stasi_data": "2665 (Nusa Tenggara Timur, Data provinsi NTT (8 keuskupan))", "catatan_strategis": "Pusat devosi Maria Reinha Rosari; kuat tradisi Semana Santa."}}, {"type": "Feature", "id": 30, "geometry": {"type": "Point", "coordinates": [112.33812992974555, 0.1296640500000305]}, "properties": {"id": 30, "kode": "KStg", "nama": "Keuskupan Sintang", "nama_pendek": "Sintang", "jenis": "K", "provinsi_gerejawi": null, "uskup": "Mgr. Samuel Oton Sidin, OFM.Cap", "katedral": "Katedral Sintang", "jml_paroki": null, "umat_katolik_est": 260000, "color": "#2563eb", "sumber_populasi": "Kemenag Bimas Katolik 2025 (estimasi per keuskupan dari data provinsi)", "sumber_batas": "GeoBoundaries IDN ADM2 via geoboundaries.org (CC BY 4.0)", "catatan": "Batas keuskupan ≈ agregasi kabupaten/kota; beberapa batas tidak persis mengikuti batas administrasi sipil", "wilayah_admin": "Kalimantan Barat bagian utara & timur (Sintang, Kapuas Hulu, Melawi)", "umat_data": "→ lihat Kalbar: 1.236.714 total", "paroki_data": "104 (Kalimantan Barat, Data provinsi Kalimantan Barat (4 keuskupan))", "stasi_data": "2621 (Kalimantan Barat, Data provinsi Kalimantan Barat (4 keuskupan))", "catatan_strategis": null}}, {"type": "Feature", "id": 31, "geometry": {"type": "Point", "coordinates": [110.45700118912937, -1.6826688999999821]}, "properties": {"id": 31, "kode": "KKtp", "nama": "Keuskupan Ketapang", "nama_pendek": "Ketapang", "jenis": "K", "provinsi_gerejawi": null, "uskup": "Mgr. Pius Riana Prapdi", "katedral": "Katedral Ketapang", "jml_paroki": null, "umat_katolik_est": 196000, "color": "#2563eb", "sumber_populasi": "Kemenag Bimas Katolik 2025 (estimasi per keuskupan dari data provinsi)", "sumber_batas": "GeoBoundaries IDN ADM2 via geoboundaries.org (CC BY 4.0)", "catatan": "Batas keuskupan ≈ agregasi kabupaten/kota; beberapa batas tidak persis mengikuti batas administrasi sipil", "wilayah_admin": "Kalimantan Barat bagian selatan", "umat_data": "→ lihat Kalbar: 1.236.714 total", "paroki_data": "104 (Kalimantan Barat, Data provinsi Kalimantan Barat (4 keuskupan))", "stasi_data": "2621 (Kalimantan Barat, Data provinsi Kalimantan Barat (4 keuskupan))", "catatan_strategis": null}}, {"type": "Feature", "id": 32, "geometry": {"type": "Point", "coordinates": [116.34228884030694, -0.280963349999951]}, "properties": {"id": 32, "kode": "KASmd", "nama": "Keuskupan Agung Samarinda", "nama_pendek": "KA Samarinda", "jenis": "KA", "provinsi_gerejawi": "Samarinda", "uskup": "Mgr. Yustinus Harjosusanto, MSF", "katedral": "Katedral Samarinda", "jml_paroki": 26, "umat_katolik_est": 178000, "color": "#dc2626", "sumber_populasi": "Kemenag Bimas Katolik 2025 (estimasi per keuskupan dari data provinsi)", "sumber_batas": "GeoBoundaries IDN ADM2 via geoboundaries.org (CC BY 4.0)", "catatan": "Batas keuskupan ≈ agregasi kabupaten/kota; beberapa batas tidak persis mengikuti batas administrasi sipil", "wilayah_admin": "Kalimantan Timur & Kalimantan Utara", "umat_data": "Kaltim: 182.582 | Kaltara: 50.666 (Bimas Katolik 2025)", "paroki_data": "27 (Kaltim)", "stasi_data": "238 (Kaltim)", "catatan_strategis": "PSN Kaltim: IKN, Tambang, Kebun Kayu. Deforestasi tertinggi nasional 2024 (44.483 ha). Yonif TP & Raider aktif."}}, {"type": "Feature", "id": 33, "geometry": {"type": "Point", "coordinates": [105.1127018876542, -4.833268]}, "properties": {"id": 33, "kode": "KTjk", "nama": "Keuskupan Tanjungkarang", "nama_pendek": "Tanjungkarang", "jenis": "K", "provinsi_gerejawi": null, "uskup": "Mgr. Vinsensius Setiawan Triatmojo", "katedral": "Katedral Tanjungkarang", "jml_paroki": null, "umat_katolik_est": 77000, "color": "#2563eb", "sumber_populasi": "Kemenag Bimas Katolik 2025 (estimasi per keuskupan dari data provinsi)", "sumber_batas": "GeoBoundaries IDN ADM2 via geoboundaries.org (CC BY 4.0)", "catatan": "Batas keuskupan ≈ agregasi kabupaten/kota; beberapa batas tidak persis mengikuti batas administrasi sipil", "wilayah_admin": "Lampung", "umat_data": "Lampung: 77.035 (Bimas Katolik 2025)", "paroki_data": "23 (Lampung)", "stasi_data": "316 (Lampung)", "catatan_strategis": "Katedral: Kristus Raja. Administrator Apostolik sebelumnya Mgr. Harun Yuwono."}}, {"type": "Feature", "id": 34, "geometry": {"type": "Point", "coordinates": [120.61682535137075, -8.565551749999962]}, "properties": {"id": 34, "kode": "KRtg", "nama": "Keuskupan Ruteng", "nama_pendek": "Ruteng", "jenis": "K", "provinsi_gerejawi": null, "uskup": "Mgr. Siprianus Hormat", "katedral": "Katedral Ruteng", "jml_paroki": null, "umat_katolik_est": 450000, "color": "#2563eb", "sumber_populasi": "Kemenag Bimas Katolik 2025 (estimasi per keuskupan dari data provinsi)", "sumber_batas": "GeoBoundaries IDN ADM2 via geoboundaries.org (CC BY 4.0)", "catatan": "Batas keuskupan ≈ agregasi kabupaten/kota; beberapa batas tidak persis mengikuti batas administrasi sipil", "wilayah_admin": "Manggarai Raya (Manggarai, Manggarai Timur; bukan lagi Manggarai Barat—kini Labuan Bajo)", "umat_data": "→ lihat NTT: 3.053.189 total", "paroki_data": "342 (Nusa Tenggara Timur, Data provinsi NTT (8 keuskupan))", "stasi_data": "2665 (Nusa Tenggara Timur, Data provinsi NTT (8 keuskupan))", "catatan_strategis": "Katedral: Kristus Raja. PSN: 16 titik panas bumi (Waisano, Ulumbu, Wai Pesi, dll)."}}, {"type": "Feature", "id": 35, "geometry": {"type": "Point", "coordinates": [120.06120491877968, -8.574121399999967]}, "properties": {"id": 35, "kode": "KLbj", "nama": "Keuskupan Labuan Bajo", "nama_pendek": "Labuan Bajo", "jenis": "K", "provinsi_gerejawi": null, "uskup": "Belum diketahui (baru 21 Jun 2024)", "katedral": "Katedral Labuan Bajo", "jml_paroki": null, "umat_katolik_est": 220000, "color": "#2563eb", "sumber_populasi": "Kemenag Bimas Katolik 2025 (estimasi per keuskupan dari data provinsi)", "sumber_batas": "GeoBoundaries IDN ADM2 via geoboundaries.org (CC BY 4.0)", "catatan": "Batas keuskupan ≈ agregasi kabupaten/kota; beberapa batas tidak persis mengikuti batas administrasi sipil", "wilayah_admin": "Manggarai Barat", "umat_data": "→ lihat NTT: 3.053.189 total", "paroki_data": "342 (Nusa Tenggara Timur, Data provinsi NTT (8 keuskupan))", "stasi_data": "2665 (Nusa Tenggara Timur, Data provinsi NTT (8 keuskupan))", "catatan_strategis": "Keuskupan TERMUDA Indonesia (21 Jun 2024). Dipisahkan dari Keuskupan Ruteng. PSN: Bandara Komodo (P3), Terminal Multipurpose Labuan Bajo (P1)."}}, {"type": "Feature", "id": 36, "geometry": {"type": "Point", "coordinates": [110.69831049005256, 0.283874750000024]}, "properties": {"id": 36, "kode": "KSgg", "nama": "Keuskupan Sanggau", "nama_pendek": "Sanggau", "jenis": "K", "provinsi_gerejawi": null, "uskup": "Mgr. Valentinus Saeng, CP", "katedral": "Katedral Sanggau", "jml_paroki": null, "umat_katolik_est": 350000, "color": "#2563eb", "sumber_populasi": "Kemenag Bimas Katolik 2025 (estimasi per keuskupan dari data provinsi)", "sumber_batas": "GeoBoundaries IDN ADM2 via geoboundaries.org (CC BY 4.0)", "catatan": "Batas keuskupan ≈ agregasi kabupaten/kota; beberapa batas tidak persis mengikuti batas administrasi sipil", "wilayah_admin": "Kalimantan Barat bagian timur (Sanggau, Sekadau, Landak)", "umat_data": "→ lihat Kalbar: 1.236.714 total", "paroki_data": "104 (Kalimantan Barat, Data provinsi Kalimantan Barat (4 keuskupan))", "stasi_data": "2621 (Kalimantan Barat, Data provinsi Kalimantan Barat (4 keuskupan))", "catatan_strategis": null}}, {"type": "Feature", "id": 37, "geometry": {"type": "Point", "coordinates": [122.08977467091879, -8.594982649999963]}, "properties": {"id": 37, "kode": "KMmr", "nama": "Keuskupan Maumere", "nama_pendek": "Maumere", "jenis": "K", "provinsi_gerejawi": null, "uskup": "Mgr. Edwaldus Martinus Sedu", "katedral": "Katedral Maumere", "jml_paroki": null, "umat_katolik_est": 300000, "color": "#2563eb", "sumber_populasi": "Kemenag Bimas Katolik 2025 (estimasi per keuskupan dari data provinsi)", "sumber_batas": "GeoBoundaries IDN ADM2 via geoboundaries.org (CC BY 4.0)", "catatan": "Batas keuskupan ≈ agregasi kabupaten/kota; beberapa batas tidak persis mengikuti batas administrasi sipil", "wilayah_admin": "Sikka, sebagian Ende & Alor", "umat_data": "→ lihat NTT: 3.053.189 total", "paroki_data": "342 (Nusa Tenggara Timur, Data provinsi NTT (8 keuskupan))", "stasi_data": "2665 (Nusa Tenggara Timur, Data provinsi NTT (8 keuskupan))", "catatan_strategis": "Dipisahkan dari KA Ende 14 Des 2005. PSN: panas bumi Oka Ile Ange, Atedai, Bukapiting, Roma-Ujelewung."}}, {"type": "Feature", "id": 38, "geometry": {"type": "Point", "coordinates": [120.1507053189808, -9.79682589999996]}, "properties": {"id": 38, "kode": "KWtb", "nama": "Keuskupan Weetebula", "nama_pendek": "Weetebula", "jenis": "K", "provinsi_gerejawi": null, "uskup": "Mgr. Edmund Woga, CSsR", "katedral": "Katedral Weetebula", "jml_paroki": null, "umat_katolik_est": 230000, "color": "#2563eb", "sumber_populasi": "Kemenag Bimas Katolik 2025 (estimasi per keuskupan dari data provinsi)", "sumber_batas": "GeoBoundaries IDN ADM2 via geoboundaries.org (CC BY 4.0)", "catatan": "Batas keuskupan ≈ agregasi kabupaten/kota; beberapa batas tidak persis mengikuti batas administrasi sipil", "wilayah_admin": "Sumba (Sumba Barat, Sumba Tengah, Sumba Barat Daya, Sumba Timur)", "umat_data": "→ lihat NTT: 3.053.189 total", "paroki_data": "342 (Nusa Tenggara Timur, Data provinsi NTT (8 keuskupan))", "stasi_data": "2665 (Nusa Tenggara Timur, Data provinsi NTT (8 keuskupan))", "catatan_strategis": "PSN: Yonif TP 876 Pandawai (Sumba Timur). Panas bumi: Oyang Barang."}}]}